<?xml version="1.0" encoding="UTF-8"?>
<ndm xmlns:xsi="http://www.w3.org/2001/XMLSchema-instance" xsi:noNamespaceSchemaLocation="https://sanaregistry.org/r/ndmxml_unqualified/ndmxml-2.0.0-master-2.0.xsd">
<omm id="CCSDS_OMM_VERS" version="2.0">
<header><CREATION_DATE/><ORIGINATOR/></header><body><segment><metadata><OBJECT_NAME>KUIPER-00071</OBJECT_NAME><OBJECT_ID>2025-151C</OBJECT_ID><CENTER_NAME>EARTH</CENTER_NAME><REF_FRAME>TEME</REF_FRAME><TIME_SYSTEM>UTC</TIME_SYSTEM><MEAN_ELEMENT_THEORY>SGP4</MEAN_ELEMENT_THEORY></metadata><data><meanElements><EPOCH>2025-07-30T21:50:43.331136</EPOCH><MEAN_MOTION>15.35658282</MEAN_MOTION><ECCENTRICITY>.0005273</ECCENTRICITY><INCLINATION>51.8776</INCLINATION><RA_OF_ASC_NODE>217.0077</RA_OF_ASC_NODE><ARG_OF_PERICENTER>189.7140</ARG_OF_PERICENTER><MEAN_ANOMALY>170.3745</MEAN_ANOMALY></meanElements><tleParameters><EPHEMERIS_TYPE>0</EPHEMERIS_TYPE><CLASSIFICATION_TYPE>U</CLASSIFICATION_TYPE><NORAD_CAT_ID>64818</NORAD_CAT_ID><ELEMENT_SET_NO>999</ELEMENT_SET_NO><REV_AT_EPOCH>224</REV_AT_EPOCH><BSTAR>.4406E-3</BSTAR><MEAN_MOTION_DOT>.15163E-3</MEAN_MOTION_DOT><MEAN_MOTION_DDOT>0</MEAN_MOTION_DDOT></tleParameters></data></segment></body></omm>
<omm id="CCSDS_OMM_VERS" version="2.0">
<header><CREATION_DATE/><ORIGINATOR/></header><body><segment><metadata><OBJECT_NAME>KUIPER-00072</OBJECT_NAME><OBJECT_ID>2025-151D</OBJECT_ID><CENTER_NAME>EARTH</CENTER_NAME><REF_FRAME>TEME</REF_FRAME><TIME_SYSTEM>UTC</TIME_SYSTEM><MEAN_ELEMENT_THEORY>SGP4</MEAN_ELEMENT_THEORY></metadata><data><meanElements><EPOCH>2025-07-30T21:55:06.711168</EPOCH><MEAN_MOTION>15.35857792</MEAN_MOTION><ECCENTRICITY>.0006691</ECCENTRICITY><INCLINATION>51.8766</INCLINATION><RA_OF_ASC_NODE>217.0217</RA_OF_ASC_NODE><ARG_OF_PERICENTER>214.4676</ARG_OF_PERICENTER><MEAN_ANOMALY>145.5877</MEAN_ANOMALY></meanElements><tleParameters><EPHEMERIS_TYPE>0</EPHEMERIS_TYPE><CLASSIFICATION_TYPE>U</CLASSIFICATION_TYPE><NORAD_CAT_ID>64819</NORAD_CAT_ID><ELEMENT_SET_NO>999</ELEMENT_SET_NO><REV_AT_EPOCH>224</REV_AT_EPOCH><BSTAR>.13651E-1</BSTAR><MEAN_MOTION_DOT>.517985E-2</MEAN_MOTION_DOT><MEAN_MOTION_DDOT>0</MEAN_MOTION_DDOT></tleParameters></data></segment></body></omm>
<omm id="CCSDS_OMM_VERS" version="2.0">
<header><CREATION_DATE/><ORIGINATOR/></header><body><segment><metadata><OBJECT_NAME>KUIPER-00073</OBJECT_NAME><OBJECT_ID>2025-151E</OBJECT_ID><CENTER_NAME>EARTH</CENTER_NAME><REF_FRAME>TEME</REF_FRAME><TIME_SYSTEM>UTC</TIME_SYSTEM><MEAN_ELEMENT_THEORY>SGP4</MEAN_ELEMENT_THEORY></metadata><data><meanElements><EPOCH>2025-07-30T21:53:50.907264</EPOCH><MEAN_MOTION>15.35390959</MEAN_MOTION><ECCENTRICITY>.0005025</ECCENTRICITY><INCLINATION>51.8781</INCLINATION><RA_OF_ASC_NODE>217.0234</RA_OF_ASC_NODE><ARG_OF_PERICENTER>196.9186</ARG_OF_PERICENTER><MEAN_ANOMALY>163.1633</MEAN_ANOMALY></meanElements><tleParameters><EPHEMERIS_TYPE>0</EPHEMERIS_TYPE><CLASSIFICATION_TYPE>U</CLASSIFICATION_TYPE><NORAD_CAT_ID>64820</NORAD_CAT_ID><ELEMENT_SET_NO>999</ELEMENT_SET_NO><REV_AT_EPOCH>342</REV_AT_EPOCH><BSTAR>.44191E-3</BSTAR><MEAN_MOTION_DOT>.15077E-3</MEAN_MOTION_DOT><MEAN_MOTION_DDOT>0</MEAN_MOTION_DDOT></tleParameters></data></segment></body></omm>
<omm id="CCSDS_OMM_VERS" version="2.0">
<header><CREATION_DATE/><ORIGINATOR/></header><body><segment><metadata><OBJECT_NAME>KUIPER-00074</OBJECT_NAME><OBJECT_ID>2025-151F</OBJECT_ID><CENTER_NAME>EARTH</CENTER_NAME><REF_FRAME>TEME</REF_FRAME><TIME_SYSTEM>UTC</TIME_SYSTEM><MEAN_ELEMENT_THEORY>SGP4</MEAN_ELEMENT_THEORY></metadata><data><meanElements><EPOCH>2025-07-30T21:53:04.903584</EPOCH><MEAN_MOTION>15.35480115</MEAN_MOTION><ECCENTRICITY>.0005195</ECCENTRICITY><INCLINATION>51.8768</INCLINATION><RA_OF_ASC_NODE>217.0125</RA_OF_ASC_NODE><ARG_OF_PERICENTER>198.3194</ARG_OF_PERICENTER><MEAN_ANOMALY>161.7605</MEAN_ANOMALY></meanElements><tleParameters><EPHEMERIS_TYPE>0</EPHEMERIS_TYPE><CLASSIFICATION_TYPE>U</CLASSIFICATION_TYPE><NORAD_CAT_ID>64821</NORAD_CAT_ID><ELEMENT_SET_NO>999</ELEMENT_SET_NO><REV_AT_EPOCH>224</REV_AT_EPOCH><BSTAR>.42884E-3</BSTAR><MEAN_MOTION_DOT>.14662E-3</MEAN_MOTION_DOT><MEAN_MOTION_DDOT>0</MEAN_MOTION_DDOT></tleParameters></data></segment></body></omm>
<omm id="CCSDS_OMM_VERS" version="2.0">
<header><CREATION_DATE/><ORIGINATOR/></header><body><segment><metadata><OBJECT_NAME>KUIPER-00075</OBJECT_NAME><OBJECT_ID>2025-151G</OBJECT_ID><CENTER_NAME>EARTH</CENTER_NAME><REF_FRAME>TEME</REF_FRAME><TIME_SYSTEM>UTC</TIME_SYSTEM><MEAN_ELEMENT_THEORY>SGP4</MEAN_ELEMENT_THEORY></metadata><data><meanElements><EPOCH>2025-07-30T21:51:57.928032</EPOCH><MEAN_MOTION>15.35532987</MEAN_MOTION><ECCENTRICITY>.0005052</ECCENTRICITY><INCLINATION>51.8779</INCLINATION><RA_OF_ASC_NODE>217.0143</RA_OF_ASC_NODE><ARG_OF_PERICENTER>189.1230</ARG_OF_PERICENTER><MEAN_ANOMALY>170.9665</MEAN_ANOMALY></meanElements><tleParameters><EPHEMERIS_TYPE>0</EPHEMERIS_TYPE><CLASSIFICATION_TYPE>U</CLASSIFICATION_TYPE><NORAD_CAT_ID>64822</NORAD_CAT_ID><ELEMENT_SET_NO>999</ELEMENT_SET_NO><REV_AT_EPOCH>224</REV_AT_EPOCH><BSTAR>.71779E-3</BSTAR><MEAN_MOTION_DOT>.24876E-3</MEAN_MOTION_DOT><MEAN_MOTION_DDOT>0</MEAN_MOTION_DDOT></tleParameters></data></segment></body></omm>
<omm id="CCSDS_OMM_VERS" version="2.0">
<header><CREATION_DATE/><ORIGINATOR/></header><body><segment><metadata><OBJECT_NAME>KUIPER-00076</OBJECT_NAME><OBJECT_ID>2025-151H</OBJECT_ID><CENTER_NAME>EARTH</CENTER_NAME><REF_FRAME>TEME</REF_FRAME><TIME_SYSTEM>UTC</TIME_SYSTEM><MEAN_ELEMENT_THEORY>SGP4</MEAN_ELEMENT_THEORY></metadata><data><meanElements><EPOCH>2025-07-30T21:54:19.036512</EPOCH><MEAN_MOTION>15.35350157</MEAN_MOTION><ECCENTRICITY>.0004928</ECCENTRICITY><INCLINATION>51.8767</INCLINATION><RA_OF_ASC_NODE>217.0183</RA_OF_ASC_NODE><ARG_OF_PERICENTER>198.3085</ARG_OF_PERICENTER><MEAN_ANOMALY>161.7724</MEAN_ANOMALY></meanElements><tleParameters><EPHEMERIS_TYPE>0</EPHEMERIS_TYPE><CLASSIFICATION_TYPE>U</CLASSIFICATION_TYPE><NORAD_CAT_ID>64823</NORAD_CAT_ID><ELEMENT_SET_NO>999</ELEMENT_SET_NO><REV_AT_EPOCH>224</REV_AT_EPOCH><BSTAR>.41997E-3</BSTAR><MEAN_MOTION_DOT>.14289E-3</MEAN_MOTION_DOT><MEAN_MOTION_DDOT>0</MEAN_MOTION_DDOT></tleParameters></data></segment></body></omm>
<omm id="CCSDS_OMM_VERS" version="2.0">
<header><CREATION_DATE/><ORIGINATOR/></header><body><segment><metadata><OBJECT_NAME>KUIPER-00077</OBJECT_NAME><OBJECT_ID>2025-151J</OBJECT_ID><CENTER_NAME>EARTH</CENTER_NAME><REF_FRAME>TEME</REF_FRAME><TIME_SYSTEM>UTC</TIME_SYSTEM><MEAN_ELEMENT_THEORY>SGP4</MEAN_ELEMENT_THEORY></metadata><data><meanElements><EPOCH>2025-07-30T21:56:46.388256</EPOCH><MEAN_MOTION>15.35189977</MEAN_MOTION><ECCENTRICITY>.0005441</ECCENTRICITY><INCLINATION>51.8782</INCLINATION><RA_OF_ASC_NODE>217.0359</RA_OF_ASC_NODE><ARG_OF_PERICENTER>205.1503</ARG_OF_PERICENTER><MEAN_ANOMALY>154.9218</MEAN_ANOMALY></meanElements><tleParameters><EPHEMERIS_TYPE>0</EPHEMERIS_TYPE><CLASSIFICATION_TYPE>U</CLASSIFICATION_TYPE><NORAD_CAT_ID>64824</NORAD_CAT_ID><ELEMENT_SET_NO>999</ELEMENT_SET_NO><REV_AT_EPOCH>224</REV_AT_EPOCH><BSTAR>.53029E-3</BSTAR><MEAN_MOTION_DOT>.18059E-3</MEAN_MOTION_DOT><MEAN_MOTION_DDOT>0</MEAN_MOTION_DDOT></tleParameters></data></segment></body></omm>
<omm id="CCSDS_OMM_VERS" version="2.0">
<header><CREATION_DATE/><ORIGINATOR/></header><body><segment><metadata><OBJECT_NAME>KUIPER-00078</OBJECT_NAME><OBJECT_ID>2025-151K</OBJECT_ID><CENTER_NAME>EARTH</CENTER_NAME><REF_FRAME>TEME</REF_FRAME><TIME_SYSTEM>UTC</TIME_SYSTEM><MEAN_ELEMENT_THEORY>SGP4</MEAN_ELEMENT_THEORY></metadata><data><meanElements><EPOCH>2025-07-30T21:56:19.712256</EPOCH><MEAN_MOTION>15.35223501</MEAN_MOTION><ECCENTRICITY>.0005648</ECCENTRICITY><INCLINATION>51.8773</INCLINATION><RA_OF_ASC_NODE>217.0304</RA_OF_ASC_NODE><ARG_OF_PERICENTER>208.0055</ARG_OF_PERICENTER><MEAN_ANOMALY>152.0628</MEAN_ANOMALY></meanElements><tleParameters><EPHEMERIS_TYPE>0</EPHEMERIS_TYPE><CLASSIFICATION_TYPE>U</CLASSIFICATION_TYPE><NORAD_CAT_ID>64825</NORAD_CAT_ID><ELEMENT_SET_NO>999</ELEMENT_SET_NO><REV_AT_EPOCH>224</REV_AT_EPOCH><BSTAR>.41697E-3</BSTAR><MEAN_MOTION_DOT>.14126E-3</MEAN_MOTION_DOT><MEAN_MOTION_DDOT>0</MEAN_MOTION_DDOT></tleParameters></data></segment></body></omm>

</ndm>
