KUIPER-00071            
1 64818U 25151C   25211.91022374  .00015163  00000+0  44060-3 0  9992
2 64818  51.8776 217.0077 0005273 189.7140 170.3745 15.35658282  2244
KUIPER-00072            
1 64819U 25151D   25211.91327212  .00517985  00000+0  13651-1 0  9991
2 64819  51.8766 217.0217 0006691 214.4676 145.5877 15.35857792  2242
KUIPER-00073            
1 64820U 25151E   25211.91239476  .00015077  00000+0  44191-3 0  9997
2 64820  51.8781 217.0234 0005025 196.9186 163.1633 15.35390959  3424
KUIPER-00074            
1 64821U 25151F   25211.91186231  .00014662  00000+0  42884-3 0  9994
2 64821  51.8768 217.0125 0005195 198.3194 161.7605 15.35480115  2248
KUIPER-00075            
1 64822U 25151G   25211.91108713  .00024876  00000+0  71779-3 0  9997
2 64822  51.8779 217.0143 0005052 189.1230 170.9665 15.35532987  2245
KUIPER-00076            
1 64823U 25151H   25211.91272033  .00014289  00000+0  41997-3 0  9991
2 64823  51.8767 217.0183 0004928 198.3085 161.7724 15.35350157  2249
KUIPER-00077            
1 64824U 25151J   25211.91442579  .00018059  00000+0  53029-3 0  9994
2 64824  51.8782 217.0359 0005441 205.1503 154.9218 15.35189977  2247
KUIPER-00078            
1 64825U 25151K   25211.91411704  .00014126  00000+0  41697-3 0  9990
2 64825  51.8773 217.0304 0005648 208.0055 152.0628 15.35223501  2247
